QIANFAN-161             
1 69120U 26108S   26200.26961530 -.01893836  00000+0 -23532+1 0  9991
2 69120  89.0107  18.7615 0017970  29.2598 330.9566 13.69180318  8811
QIANFAN-162             
1 69121U 26108T   26200.06487148 -.01861590  00000+0 -26313+1 0  9990
2 69121  89.0096  18.8021 0019634   2.7062 357.4197 13.61116520  8766
QIANFAN-163             
1 69325U 26121A   26189.97247712  .00000008  00000+0 -66399-5 0  9998
2 69325  89.0049 298.3591 0020480 118.5630 241.7588 13.53894414  5116
QIANFAN-164             
1 69326U 26121B   26194.67164071  .00000062  00000+0  78132-4 0  9994
2 69326  89.0183 297.8725 0022845 112.6356 247.7213 13.49695561  5743
QIANFAN-165             
1 69382U 26124A   26200.68168146 -.01987785  00000+0 -20353+1 0  9992
2 69382  89.0009 358.4232 0011522  76.9480 283.2973 13.80425601  6389
QIANFAN-166             
1 69383U 26124B   26200.63904860 -.01937443  00000+0 -18791+1 0  9998
2 69383  89.0010 358.4162 0012282  45.9413 314.2766 13.83531345  6381
QIANFAN-167             
1 69384U 26124C   26198.87548135 -.02097118  00000+0 -20293+1 0  9997
2 69384  88.9997 358.6171 0009464  61.7925 298.4200 13.84006830  6134
QIANFAN-168             
1 69385U 26124D   26200.13840536 -.01826293  00000+0 -18444+1 0  9999
2 69385  88.9999 358.4697 0012274  78.8809 281.3738 13.81567787  6318
QIANFAN-169             
1 69386U 26124E   26200.69887350 -.01868916  00000+0 -19116+1 0  9991
2 69386  89.0000 358.4059 0012157  83.2628 276.9923 13.80915159  6398
QIANFAN-170             
1 69387U 26124F   26200.37293551 -.01931958  00000+0 -17928+1 0  9997
2 69387  88.9992 358.4308 0007149  55.3691 304.8153 13.86142397  6353
QIANFAN-171             
1 69388U 26124G   26199.42341223 -.02012415  00000+0 -18309+1 0  9994
2 69388  89.0004 358.5303 0003080 135.1347 225.0075 13.87475735  6220
QIANFAN-172             
1 69389U 26124H   26199.70936549 -.01774562  00000+0 -15980+1 0  9996
2 69389  88.9999 358.4995 0007473  24.8346 335.3185 13.88217430  6269
QIANFAN-173             
1 69390U 26124J   26200.70073102 -.01852633  00000+0 -17358+1 0  9995
2 69390  89.0002 358.3875 0006382  64.4629 295.7201 13.86088170  6405
QIANFAN-174             
1 69391U 26124K   26200.59208376 -.01836240  00000+0 -15561+1 0  9996
2 69391  88.9999 358.3901 0008075  45.9041 314.2797 13.91897391  6385
QIANFAN-175             
1 69392U 26124L   26199.24169628  .00000035  00000+0  16284-4 0  9991
2 69392  89.0012 358.5397 0007731  64.0413 296.1558 13.93949050  6204
QIANFAN-176             
1 69393U 26124M   26199.74722265 -.02044943  00000+0 -19016+1 0  9991
2 69393  89.0001 358.4860 0006551  53.4344 306.7430 13.86254701  6268
